GSAT0213 (GALILEO 17)   
1 41861U 16069C   26058.27531726  .00000004  00000+0  00000+0 0  9998
2 41861  55.4260 104.1303 0005130 291.6331  68.3872  1.70474834 57644
GSAT0214 (GALILEO 18)   
1 41862U 16069D   26059.00795760  .00000007  00000+0  00000+0 0  9994
2 41862  55.4250 104.1026 0004132 296.1582  63.8775  1.70474701 57785
SES-15 (WAAS/PRN 133)   
1 42709U 17026A   26061.70515447  .00000043  00000+0  00000+0 0  9991
2 42709   0.0247 275.7633 0000708  61.0250 308.3599  1.00271134  6360
QZS-2 (QZSS/PRN 194)    
1 42738U 17028A   26061.82822588 -.00000175  00000+0  00000+0 0  9992
2 42738  39.5927 244.7025 0745894 270.3157  85.4192  1.00262420  6560
COSMOS 2522 (752)       
1 42939U 17055A   26060.66254924 -.00000014  00000+0  00000+0 0  9991
2 42939  64.0792 195.5407 0007123 226.6423 133.2575  2.13101627 65680
QZS-4 (QZSS/PRN 195)    
1 42965U 17062A   26060.89556137 -.00000339  00000+0  00000+0 0  9994
2 42965  40.1745 344.8554 0749010 269.8374   7.7874  1.00281156 30721
BEIDOU-3 M1 (C19)       
1 43001U 17069A   26060.74197850 -.00000003  00000+0  00000+0 0  9998
2 43001  56.5988  66.6221 0012398 309.4779  50.4494  1.86230886 56601
BEIDOU-3 M2 (C20)       
1 43002U 17069B   26060.68047222 -.00000003  00000+0  00000+0 0  9999
2 43002  56.5973  66.6603 0009682 328.7679  31.2120  1.86230491 56598
GSAT0215 (GALILEO 19)   
1 43055U 17079A   26059.49798153  .00000025  00000+0  00000+0 0  9994
2 43055  55.1089 224.4942 0000658  16.7992 343.1591  1.70474358 51132
GSAT0216 (GALILEO 20)   
1 43056U 17079B   26060.96235113  .00000013  00000+0  00000+0 0  9998
2 43056  55.1088 224.4540 0001688 322.1798  37.7539  1.70474524 51175
GSAT0217 (GALILEO 21)   
1 43057U 17079C   26060.59652636  .00000016  00000+0  00000+0 0  9994
2 43057  55.1095 224.4618 0002061 357.3180   2.6289  1.70474416 51152
GSAT0218 (GALILEO 22)   
1 43058U 17079D   26060.22999436  .00000018  00000+0  00000+0 0  9999
2 43058  55.1053 224.4697 0001889 305.5636  54.3694  1.70474409 51170
BEIDOU-3 M7 (C27)       
1 43107U 18003A   26060.95946045 -.00000051  00000+0  00000+0 0  9998
2 43107  54.4231 306.0554 0004639  70.8611 289.2487  1.86232216 55353
BEIDOU-3 M8 (C28)       
1 43108U 18003B   26061.44195370 -.00000053  00000+0  00000+0 0  9993
2 43108  54.4152 306.0214 0003139 293.2400  66.7868  1.86230717 55377
BEIDOU-3 M4 (C22)       
1 43207U 18018A   26060.27328956 -.00000001  00000+0  00000+0 0  9990
2 43207  56.5572  66.7052 0006848 350.3261   9.6997  1.86230768 54730
BEIDOU-3 M3 (C21)       
1 43208U 18018B   26061.41364278 -.00000008  00000+0  00000+0 0  9992
2 43208  56.5577  66.6717 0009895 319.4833  40.4775  1.86230930 54759
